{
  "norad_id": 61258,
  "name": "STARLINK-32382",
  "history": [
    {
      "epoch": "2026-03-28T18:26:24.438624",
      "apogee_km": 476.32886210208653,
      "perigee_km": 474.1344134642686,
      "latitude_deg": 45.075779818209085,
      "longitude_deg": 19.560487359995022,
      "semi_major_axis_km": 6853.368637783177,
      "eccentricity": 0.0001601,
      "inclination_deg": 53.1607,
      "raan_deg": 105.488,
      "arg_perigee_deg": 87.2866,
      "mean_anomaly_deg": 272.8318,
      "mean_motion_rev_day": 15.30194451
    }
  ]
}