{"fetched_at":"2026-03-29T16:36:15Z","count":15609,"tles":[{"name":"STARLINK-32382","line1":"1 61258U 24175R   26087.76833841  .00001333  00000+0  57152-4 0  9997","line2":"2 61258  53.1607 105.4880 0001601  87.2866 272.8318 15.30194451 84373","category":"Starlink"}]}